{"type": "FeatureCollection", "features": [ {"type": "Feature", "properties": {"norad_id": 37498, "name": "COSMOS 2251 DEB", "group": "cosmos-2251-debris", "lat": -72.28068054989747, "lon": 139.4924181887696, "alt_km": 708.0380408988367, "timestamp": "2025-12-02T13:52:17.659099+00:00", "meta": {"OBJECT_NAME": "COSMOS 2251 DEB", "OBJECT_ID": "1993-036BMB", "EPOCH": "2025-11-25T08:56:38.546304", "MEAN_MOTION": 14.54652279, "ECCENTRICITY": 0.00134189, "INCLINATION": 74.0363, "RA_OF_ASC_NODE": 216.7419, "ARG_OF_PERICENTER": 278.5504, "MEAN_ANOMALY": 81.4138, "EPHEMERIS_TYPE": 0, "CLASSIFICATION_TYPE": "U", "NORAD_CAT_ID": 37498, "ELEMENT_SET_NO": 999, "REV_AT_EPOCH": 65102, "BSTAR": 0.001010673, "MEAN_MOTION_DOT": 4.299e-05, "MEAN_MOTION_DDOT": 0}, "tle": {"line1": "1 37498U 93036BMB 25329.37266836  .00004299  00000+0  10107-2 0  9998", "line2": "2 37498  74.0363 216.7419 0013418 278.5504  81.4138 14.54652279651028"}}, "geometry": {"type": "Point", "coordinates": [139.4924181887696, -72.28068054989747]}}, {"type": "Feature", "properties": {"norad_id": 37499, "name": "COSMOS 2251 DEB", "group": "cosmos-2251-debris", "lat": 23.532112375639077, "lon": 153.63452910656764, "alt_km": 778.1452730990068, "timestamp": "2025-12-02T13:52:17.659110+00:00", "meta": {"OBJECT_NAME": "COSMOS 2251 DEB", "OBJECT_ID": "1993-036BMC", "EPOCH": "2025-12-01T10:22:10.012512", "MEAN_MOTION": 14.34324837, "ECCENTRICITY": 0.0026595, "INCLINATION": 74.0374, "RA_OF_ASC_NODE": 342.8917, "ARG_OF_PERICENTER": 62.4441, "MEAN_ANOMALY": 297.9408, "EPHEMERIS_TYPE": 0, "CLASSIFICATION_TYPE": "U", "NORAD_CAT_ID": 37499, "ELEMENT_SET_NO": 999, "REV_AT_EPOCH": 84987, "BSTAR": 0.00017946924, "MEAN_MOTION_DOT": 4.8e-06, "MEAN_MOTION_DDOT": 0}, "tle": {"line1": "1 37499U 93036BMC 25335.43206033  .00000480  00000+0  17947-3 0  9994", "line2": "2 37499  74.0374 342.8917 0026595  62.4441 297.9408 14.34324837849875"}}, "geometry": {"type": "Point", "coordinates": [153.63452910656764, 23.532112375639077]}}, {"type": "Feature", "properties": {"norad_id": 37528, "name": "COSMOS 2251 DEB", "group": "cosmos-2251-debris", "lat": 71.38569117365802, "lon": -160.5685819993796, "alt_km": 729.796335186762, "timestamp": "2025-12-02T13:52:17.659120+00:00", "meta": {"OBJECT_NAME": "COSMOS 2251 DEB", "OBJECT_ID": "1993-036BNH", "EPOCH": "2025-12-01T04:23:44.422656", "MEAN_MOTION": 14.50451173, "ECCENTRICITY": 0.0020905, "INCLINATION": 74.0362, "RA_OF_ASC_NODE": 143.8539, "ARG_OF_PERICENTER": 293.085, "MEAN_ANOMALY": 66.8106, "EPHEMERIS_TYPE": 0, "CLASSIFICATION_TYPE": "U", "NORAD_CAT_ID": 37528, "ELEMENT_SET_NO": 999, "REV_AT_EPOCH": 85763, "BSTAR": 0.0005005, "MEAN_MOTION_DOT": 1.935e-05, "MEAN_MOTION_DDOT": 0}, "tle": {"line1": "1 37528U 93036BNH 25335.18315304  .00001935  00000+0  50050-3 0  9999", "line2": "2 37528  74.0362 143.8539 0020905 293.0850  66.8106 14.50451173857632"}}, "geometry": {"type": "Point", "coordinates": [-160.5685819993796, 71.38569117365802]}}, {"type": "Feature", "properties": {"norad_id": 37530, "name": "COSMOS 2251 DEB", "group": "cosmos-2251-debris", "lat": -32.457259229796755, "lon": -177.25578903378937, "alt_km": 799.2192914796024, "timestamp": "2025-12-02T13:52:17.659130+00:00", "meta": {"OBJECT_NAME": "COSMOS 2251 DEB", "OBJECT_ID": "1993-036BNK", "EPOCH": "2025-11-30T19:50:14.646624", "MEAN_MOTION": 14.34478642, "ECCENTRICITY": 0.00255427, "INCLINATION": 74.0356, "RA_OF_ASC_NODE": 355.4602, "ARG_OF_PERICENTER": 61.4891, "MEAN_ANOMALY": 111.2815, "EPHEMERIS_TYPE": 0, "CLASSIFICATION_TYPE": "U", "NORAD_CAT_ID": 37530, "ELEMENT_SET_NO": 999, "REV_AT_EPOCH": 85061, "BSTAR": 0.00021143929, "MEAN_MOTION_DOT": 5.72e-06, "MEAN_MOTION_DDOT": 0}, "tle": {"line1": "1 37530U 93036BNK 25334.82655841  .00000572  00000+0  21144-3 0  9993", "line2": "2 37530  74.0356 355.4602 0025542  61.4891 111.2815 14.34478642850619"}}, "geometry": {"type": "Point", "coordinates": [-177.25578903378937, -32.457259229796755]}}, {"type": "Feature", "properties": {"norad_id": 37532, "name": "COSMOS 2251 DEB", "group": "cosmos-2251-debris", "lat": 60.810975413040985, "lon": -94.65564282302586, "alt_km": 744.1567004558146, "timestamp": "2025-12-02T13:52:17.659140+00:00", "meta": {"OBJECT_NAME": "COSMOS 2251 DEB", "OBJECT_ID": "1993-036BNM", "EPOCH": "2025-11-30T12:27:06.962976", "MEAN_MOTION": 14.42376365, "ECCENTRICITY": 0.00155828, "INCLINATION": 74.0506, "RA_OF_ASC_NODE": 238.3668, "ARG_OF_PERICENTER": 340.6914, "MEAN_ANOMALY": 196.4661, "EPHEMERIS_TYPE": 0, "CLASSIFICATION_TYPE": "U", "NORAD_CAT_ID": 37532, "ELEMENT_SET_NO": 999, "REV_AT_EPOCH": 84739, "BSTAR": 0.00024978235, "MEAN_MOTION_DOT": 8e-06, "MEAN_MOTION_DDOT": 0}, "tle": {"line1": "1 37532U 93036BNM 25334.51883059  .00000800  00000+0  24978-3 0  9997", "line2": "2 37532  74.0506 238.3668 0015582 340.6914 196.4661 14.42376365847393"}}, "geometry": {"type": "Point", "coordinates": [-94.65564282302586, 60.810975413040985]}}, {"type": "Feature", "properties": {"norad_id": 37533, "name": "COSMOS 2251 DEB", "group": "cosmos-2251-debris", "lat": -1.449606776774122, "lon": 30.130346728282248, "alt_km": 847.6639266969032, "timestamp": "2025-12-02T13:52:17.659151+00:00", "meta": {"OBJECT_NAME": "COSMOS 2251 DEB", "OBJECT_ID": "1993-036BNN", "EPOCH": "2025-12-01T21:41:44.265120", "MEAN_MOTION": 14.12078799, "ECCENTRICITY": 0.01585574, "INCLINATION": 74.0695, "RA_OF_ASC_NODE": 210.9037, "ARG_OF_PERICENTER": 269.9703, "MEAN_ANOMALY": 88.3269, "EPHEMERIS_TYPE": 0, "CLASSIFICATION_TYPE": "U", "NORAD_CAT_ID": 37533, "ELEMENT_SET_NO": 999, "REV_AT_EPOCH": 62768, "BSTAR": 0.0015153786, "MEAN_MOTION_DOT": 3.103e-05, "MEAN_MOTION_DDOT": 0}, "tle": {"line1": "1 37533U 93036BNN 25335.90398455  .00003103  00000+0  15154-2 0  9997", "line2": "2 37533  74.0695 210.9037 0158557 269.9703  88.3269 14.12078799627686"}}, "geometry": {"type": "Point", "coordinates": [30.130346728282248, -1.449606776774122]}}, {"type": "Feature", "properties": {"norad_id": 37535, "name": "COSMOS 2251 DEB", "group": "cosmos-2251-debris", "lat": -32.57168598464854, "lon": -76.59791461650337, "alt_km": 685.416029305723, "timestamp": "2025-12-02T13:52:17.659161+00:00", "meta": {"OBJECT_NAME": "COSMOS 2251 DEB", "OBJECT_ID": "1993-036BNQ", "EPOCH": "2025-12-02T02:11:30.016896", "MEAN_MOTION": 14.5831726, "ECCENTRICITY": 0.00283015, "INCLINATION": 74.0235, "RA_OF_ASC_NODE": 93.7829, "ARG_OF_PERICENTER": 233.9905, "MEAN_ANOMALY": 306.1629, "EPHEMERIS_TYPE": 0, "CLASSIFICATION_TYPE": "U", "NORAD_CAT_ID": 37535, "ELEMENT_SET_NO": 999, "REV_AT_EPOCH": 85169, "BSTAR": 0.0010794095, "MEAN_MOTION_DOT": 4.995e-05, "MEAN_MOTION_DDOT": 0}, "tle": {"line1": "1 37535U 93036BNQ 25336.09131964  .00004995  00000+0  10794-2 0  9995", "line2": "2 37535  74.0235  93.7829 0028301 233.9905 306.1629 14.58317260851692"}}, "geometry": {"type": "Point", "coordinates": [-76.59791461650337, -32.57168598464854]}}, {"type": "Feature", "properties": {"norad_id": 37537, "name": "COSMOS 2251 DEB", "group": "cosmos-2251-debris", "lat": 73.99541176158486, "lon": 12.156349591430665, "alt_km": 726.4976603794721, "timestamp": "2025-12-02T13:52:17.659171+00:00", "meta": {"OBJECT_NAME": "COSMOS 2251 DEB", "OBJECT_ID": "1993-036BNS", "EPOCH": "2025-12-02T05:06:31.671648", "MEAN_MOTION": 14.37465624, "ECCENTRICITY": 0.00499669, "INCLINATION": 74.0119, "RA_OF_ASC_NODE": 284.5266, "ARG_OF_PERICENTER": 67.5686, "MEAN_ANOMALY": 293.0749, "EPHEMERIS_TYPE": 0, "CLASSIFICATION_TYPE": "U", "NORAD_CAT_ID": 37537, "ELEMENT_SET_NO": 999, "REV_AT_EPOCH": 84882, "BSTAR": 0.00030744676, "MEAN_MOTION_DOT": 9.07e-06, "MEAN_MOTION_DDOT": 0}, "tle": {"line1": "1 37537U 93036BNS 25336.21286657  .00000907  00000+0  30745-3 0  9999", "line2": "2 37537  74.0119 284.5266 0049966  67.5686 293.0749 14.37465624848820"}}, "geometry": {"type": "Point", "coordinates": [12.156349591430665, 73.99541176158486]}}, {"type": "Feature", "properties": {"norad_id": 37546, "name": "COSMOS 2251 DEB", "group": "cosmos-2251-debris", "lat": 44.63488416163471, "lon": 134.47753106272842, "alt_km": 626.6937092332028, "timestamp": "2025-12-02T13:52:17.659182+00:00", "meta": {"OBJECT_NAME": "COSMOS 2251 DEB", "OBJECT_ID": "1993-036BPB", "EPOCH": "2025-12-01T01:57:48.654432", "MEAN_MOTION": 14.7972634, "ECCENTRICITY": 0.00071974, "INCLINATION": 74.0208, "RA_OF_ASC_NODE": 120.9905, "ARG_OF_PERICENTER": 150.0376, "MEAN_ANOMALY": 210.1213, "EPHEMERIS_TYPE": 0, "CLASSIFICATION_TYPE": "U", "NORAD_CAT_ID": 37546, "ELEMENT_SET_NO": 999, "REV_AT_EPOCH": 65715, "BSTAR": 0.0028528218, "MEAN_MOTION_DOT": 0.0002149, "MEAN_MOTION_DDOT": 0}, "tle": {"line1": "1 37546U 93036BPB 25335.08181313  .00021490  00000+0  28528-2 0  9991", "line2": "2 37546  74.0208 120.9905 0007197 150.0376 210.1213 14.79726340657157"}}, "geometry": {"type": "Point", "coordinates": [134.47753106272842, 44.63488416163471]}}, {"type": "Feature", "properties": {"norad_id": 37959, "name": "COSMOS 2251 DEB", "group": "cosmos-2251-debris", "lat": -29.539511886391242, "lon": 66.95560213865338, "alt_km": 717.8849695846347, "timestamp": "2025-12-02T13:52:17.659192+00:00", "meta": {"OBJECT_NAME": "COSMOS 2251 DEB", "OBJECT_ID": "1993-036BPJ", "EPOCH": "2025-12-01T13:23:10.736160", "MEAN_MOTION": 14.58009519, "ECCENTRICITY": 0.00585454, "INCLINATION": 74.0106, "RA_OF_ASC_NODE": 78.2498, "ARG_OF_PERICENTER": 223.2236, "MEAN_ANOMALY": 152.6035, "EPHEMERIS_TYPE": 0, "CLASSIFICATION_TYPE": "U", "NORAD_CAT_ID": 37959, "ELEMENT_SET_NO": 999, "REV_AT_EPOCH": 79964, "BSTAR": 0.00093616583, "MEAN_MOTION_DOT": 4.376e-05, "MEAN_MOTION_DDOT": 0}, "tle": {"line1": "1 37959U 93036BPJ 25335.55776315  .00004376  00000+0  93617-3 0  9999", "line2": "2 37959  74.0106  78.2498 0058545 223.2236 152.6035 14.58009519799647"}}, "geometry": {"type": "Point", "coordinates": [66.95560213865338, -29.539511886391242]}}]}